STARLINK-31921          
1 59868U 24098L   26068.50810017 -.00003771  00000+0 -12766-3 0  9997
2 59868  43.0058 238.6667 0001977 279.3579  80.7049 15.27557354102276
2025-313BE              
1 67482U 25313BE  26068.69721505  .00077178  00000+0  26504-2 0  9996
2 67482  97.3989 145.3568 0007208 335.3714  24.7181 15.29801687  7972
